{
  "type": "FeatureCollection",
  "features": [
    {
      "type": "Feature",
      "properties": {
        "norad_id": 34722,
        "name": "COSMOS 2251 DEB",
        "group": "cosmos-2251-debris",
        "lat": -44.26202806162472,
        "lon": 169.34406580848594,
        "alt_km": 755.6639825174007,
        "timestamp": "2025-12-14T11:29:50.455313+00:00",
        "meta_object_name": "COSMOS 2251 DEB",
        "meta_object_id": "1993-036YQ",
        "meta_epoch": "2025-12-13T09:38:24.756288",
        "meta_mean_motion": 14.11938641,
        "meta_eccentricity": 0.01671118,
        "meta_inclination": 73.8733,
        "meta_ra_of_asc_node": 334.8872,
        "meta_arg_of_pericenter": 260.3338,
        "meta_mean_anomaly": 252.9898,
        "meta_ephemeris_type": 0,
        "meta_classification_type": "U",
        "meta_norad_cat_id": 34722,
        "meta_element_set_no": 999,
        "meta_rev_at_epoch": 86254,
        "meta_bstar": 0.0012527727,
        "meta_mean_motion_dot": 2.586e-05,
        "meta_mean_motion_ddot": 0,
        "tle_line1": "1 34722U 93036YQ  25347.40167542  .00002586  00000+0  12528-2 0  9999",
        "tle_line2": "2 34722  73.8733 334.8872 0167111 260.3338 252.9898 14.11938641862544"
      },
      "geometry": {
        "type": "Point",
        "coordinates": [
          169.34406580848594,
          -44.26202806162472
        ]
      }
    },
    {
      "type": "Feature",
      "properties": {
        "norad_id": 34726,
        "name": "COSMOS 2251 DEB",
        "group": "cosmos-2251-debris",
        "lat": -13.091383058458664,
        "lon": 166.82574051756674,
        "alt_km": 684.1047122773516,
        "timestamp": "2025-12-14T11:29:50.455323+00:00",
        "meta_object_name": "COSMOS 2251 DEB",
        "meta_object_id": "1993-036YU",
        "meta_epoch": "2025-12-13T01:42:54.964800",
        "meta_mean_motion": 14.59484284,
        "meta_eccentricity": 0.00419632,
        "meta_inclination": 74.0292,
        "meta_ra_of_asc_node": 345.6909,
        "meta_arg_of_pericenter": 136.4285,
        "meta_mean_anomaly": 224.0208,
        "meta_ephemeris_type": 0,
        "meta_classification_type": "U",
        "meta_norad_cat_id": 34726,
        "meta_element_set_no": 999,
        "meta_rev_at_epoch": 88507,
        "meta_bstar": 0.00062734816,
        "meta_mean_motion_dot": 2.985e-05,
        "meta_mean_motion_ddot": 0,
        "tle_line1": "1 34726U 93036YU  25347.07146950  .00002985  00000+0  62735-3 0  9995",
        "tle_line2": "2 34726  74.0292 345.6909 0041963 136.4285 224.0208 14.59484284885071"
      },
      "geometry": {
        "type": "Point",
        "coordinates": [
          166.82574051756674,
          -13.091383058458664
        ]
      }
    },
    {
      "type": "Feature",
      "properties": {
        "norad_id": 34728,
        "name": "COSMOS 2251 DEB",
        "group": "cosmos-2251-debris",
        "lat": 35.51405971287543,
        "lon": 56.58707371043236,
        "alt_km": 659.0074502763246,
        "timestamp": "2025-12-14T11:29:50.455333+00:00",
        "meta_object_name": "COSMOS 2251 DEB",
        "meta_object_id": "1993-036YW",
        "meta_epoch": "2025-12-12T11:30:55.868256",
        "meta_mean_motion": 14.70844464,
        "meta_eccentricity": 0.00410267,
        "meta_inclination": 74.0168,
        "meta_ra_of_asc_node": 252.2746,
        "meta_arg_of_pericenter": 49.9688,
        "meta_mean_anomaly": 310.5071,
        "meta_ephemeris_type": 0,
        "meta_classification_type": "U",
        "meta_norad_cat_id": 34728,
        "meta_element_set_no": 999,
        "meta_rev_at_epoch": 88796,
        "meta_bstar": 0.0012358203,
        "meta_mean_motion_dot": 7.631e-05,
        "meta_mean_motion_ddot": 0,
        "tle_line1": "1 34728U 93036YW  25346.47981329  .00007631  00000+0  12358-2 0  9995",
        "tle_line2": "2 34728  74.0168 252.2746 0041026  49.9688 310.5071 14.70844464887964"
      },
      "geometry": {
        "type": "Point",
        "coordinates": [
          56.58707371043236,
          35.51405971287543
        ]
      }
    },
    {
      "type": "Feature",
      "properties": {
        "norad_id": 34729,
        "name": "COSMOS 2251 DEB",
        "group": "cosmos-2251-debris",
        "lat": -48.3084574419182,
        "lon": -166.24457641143485,
        "alt_km": 630.5769375562222,
        "timestamp": "2025-12-14T11:29:50.455343+00:00",
        "meta_object_name": "COSMOS 2251 DEB",
        "meta_object_id": "1993-036YX",
        "meta_epoch": "2025-12-13T04:14:53.957760",
        "meta_mean_motion": 14.82820946,
        "meta_eccentricity": 0.00118447,
        "meta_inclination": 74.0183,
        "meta_ra_of_asc_node": 357.5638,
        "meta_arg_of_pericenter": 116.2547,
        "meta_mean_anomaly": 6.7818,
        "meta_ephemeris_type": 0,
        "meta_classification_type": "U",
        "meta_norad_cat_id": 34729,
        "meta_element_set_no": 999,
        "meta_rev_at_epoch": 88464,
        "meta_bstar": 0.0027929358,
        "meta_mean_motion_dot": 0.00022674,
        "meta_mean_motion_ddot": 0,
        "tle_line1": "1 34729U 93036YX  25347.17701340  .00022674  00000+0  27929-2 0  9991",
        "tle_line2": "2 34729  74.0183 357.5638 0011844 116.2547   6.7818 14.82820946884645"
      },
      "geometry": {
        "type": "Point",
        "coordinates": [
          -166.24457641143485,
          -48.3084574419182
        ]
      }
    },
    {
      "type": "Feature",
      "properties": {
        "norad_id": 34732,
        "name": "COSMOS 2251 DEB",
        "group": "cosmos-2251-debris",
        "lat": -51.485313887487195,
        "lon": -68.99573574918418,
        "alt_km": 712.4661171905673,
        "timestamp": "2025-12-14T11:29:50.455353+00:00",
        "meta_object_name": "COSMOS 2251 DEB",
        "meta_object_id": "1993-036ZA",
        "meta_epoch": "2025-12-12T07:07:51.873888",
        "meta_mean_motion": 14.47300137,
        "meta_eccentricity": 0.00404184,
        "meta_inclination": 74.0452,
        "meta_ra_of_asc_node": 94.0128,
        "meta_arg_of_pericenter": 245.1323,
        "meta_mean_anomaly": 145.4668,
        "meta_ephemeris_type": 0,
        "meta_classification_type": "U",
        "meta_norad_cat_id": 34732,
        "meta_element_set_no": 999,
        "meta_rev_at_epoch": 88137,
        "meta_bstar": 0.00025007541,
        "meta_mean_motion_dot": 8.97e-06,
        "meta_mean_motion_ddot": 0,
        "tle_line1": "1 34732U 93036ZA  25346.29712817  .00000897  00000+0  25008-3 0  9998",
        "tle_line2": "2 34732  74.0452  94.0128 0040418 245.1323 145.4668 14.47300137881375"
      },
      "geometry": {
        "type": "Point",
        "coordinates": [
          -68.99573574918418,
          -51.485313887487195
        ]
      }
    },
    {
      "type": "Feature",
      "properties": {
        "norad_id": 34736,
        "name": "COSMOS 2251 DEB",
        "group": "cosmos-2251-debris",
        "lat": -73.40087202377475,
        "lon": -41.8561503720537,
        "alt_km": 421.3353760777154,
        "timestamp": "2025-12-14T11:29:50.455363+00:00",
        "meta_object_name": "COSMOS 2251 DEB",
        "meta_object_id": "1993-036ZE",
        "meta_epoch": "2025-12-13T14:09:47.054016",
        "meta_mean_motion": 15.48538134,
        "meta_eccentricity": 0.00172762,
        "meta_inclination": 74.001,
        "meta_ra_of_asc_node": 34.3634,
        "meta_arg_of_pericenter": 345.3434,
        "meta_mean_anomaly": 14.7274,
        "meta_ephemeris_type": 0,
        "meta_classification_type": "U",
        "meta_norad_cat_id": 34736,
        "meta_element_set_no": 999,
        "meta_rev_at_epoch": 88461,
        "meta_bstar": 0.0079304178,
        "meta_mean_motion_dot": 0.00449596,
        "meta_mean_motion_ddot": 0,
        "tle_line1": "1 34736U 93036ZE  25347.59012794  .00449596  00000+0  79304-2 0  9993",
        "tle_line2": "2 34736  74.0010  34.3634 0017276 345.3434  14.7274 15.48538134884613"
      },
      "geometry": {
        "type": "Point",
        "coordinates": [
          -41.8561503720537,
          -73.40087202377475
        ]
      }
    },
    {
      "type": "Feature",
      "properties": {
        "norad_id": 34738,
        "name": "COSMOS 2251 DEB",
        "group": "cosmos-2251-debris",
        "lat": -71.33937352974478,
        "lon": 18.098836840066895,
        "alt_km": 714.2328474292763,
        "timestamp": "2025-12-14T11:29:50.455373+00:00",
        "meta_object_name": "COSMOS 2251 DEB",
        "meta_object_id": "1993-036ZG",
        "meta_epoch": "2025-12-13T14:57:13.851072",
        "meta_mean_motion": 14.46304989,
        "meta_eccentricity": 0.00474075,
        "meta_inclination": 74.0145,
        "meta_ra_of_asc_node": 141.615,
        "meta_arg_of_pericenter": 287.7117,
        "meta_mean_anomaly": 197.7392,
        "meta_ephemeris_type": 0,
        "meta_classification_type": "U",
        "meta_norad_cat_id": 34738,
        "meta_element_set_no": 999,
        "meta_rev_at_epoch": 87871,
        "meta_bstar": 0.0004739122,
        "meta_mean_motion_dot": 1.695e-05,
        "meta_mean_motion_ddot": 0,
        "tle_line1": "1 34738U 93036ZG  25347.62307698  .00001695  00000+0  47391-3 0  9995",
        "tle_line2": "2 34738  74.0145 141.6150 0047407 287.7117 197.7392 14.46304989878718"
      },
      "geometry": {
        "type": "Point",
        "coordinates": [
          18.098836840066895,
          -71.33937352974478
        ]
      }
    }
  ]
}